{
  "type": "FeatureCollection",
  "metadata": {
    "title": "Bible Map Phase 1 places",
    "source": "Adapted from OpenBible.info Bible Geocoding Data (CC BY 4.0)",
    "sourceCommit": "7eb18a5ee62f27b9b93bd6689ea272d76dd23b8f",
    "retrieved": "2026-08-29"
  },
  "features": [
    {
      "type": "Feature",
      "properties": {
        "id": "mediterranean-sea",
        "kind": "anchor",
        "name": "Mediterranean Sea",
        "label": "MEDITERRANEAN\nSEA",
        "labelOffset": [0, 0],
        "labelAnchor": "center"
      },
      "geometry": { "type": "Point", "coordinates": [34.63, 32.1] }
    },
    {
      "type": "Feature",
      "properties": {
        "id": "dead-sea",
        "kind": "anchor",
        "name": "Dead Sea",
        "label": "DEAD SEA",
        "labelOffset": [0, 0],
        "labelAnchor": "center"
      },
      "geometry": { "type": "Point", "coordinates": [35.51, 31.5] }
    },
    {
      "type": "Feature",
      "properties": {
        "id": "southern-basin-proposal",
        "kind": "candidate-area",
        "label": "",
        "candidateFor": "Sodom and Gomorrah",
        "description": "One of several candidate regions in current data; this boundary is a visual guide, not a claim of an exact ancient location."
      },
      "geometry": {
        "type": "Polygon",
        "coordinates": [[[35.35, 31.08], [35.49, 31.02], [35.62, 31.1], [35.59, 31.31], [35.43, 31.35], [35.35, 31.22], [35.35, 31.08]]]
      }
    },
    {
      "type": "Feature",
      "properties": {
        "id": "northern-dead-sea-proposal",
        "kind": "candidate-area",
        "label": "",
        "candidateFor": "Sodom and Gomorrah",
        "description": "A second, competing candidate region shown to preserve the uncertainty in the underlying data."
      },
      "geometry": {
        "type": "Polygon",
        "coordinates": [[[35.49, 31.67], [35.6, 31.67], [35.67, 31.79], [35.58, 31.9], [35.49, 31.84], [35.49, 31.67]]]
      }
    },
    {
      "type": "Feature",
      "properties": {
        "id": "shechem",
        "kind": "place",
        "name": "Shechem",
        "label": "Shechem",
        "labelOffset": [1.05, -0.2],
        "labelAnchor": "left",
        "featureType": "Settlement",
        "status": "confirmed",
        "confidence": "High confidence",
        "confidenceScore": 1000,
        "modernName": "Tell Balatah",
        "references": ["Genesis 12:6", "Genesis 33:18", "Genesis 35:4", "Joshua 24:1"],
        "description": "A major biblical settlement in the central hill country, near modern Nablus.",
        "sourceUrl": "https://www.openbible.info/geo/ancient/adf74d4/shechem"
      },
      "geometry": { "type": "Point", "coordinates": [35.281944, 32.213611] }
    },
    {
      "type": "Feature",
      "properties": {
        "id": "oak-of-moreh",
        "kind": "place",
        "name": "Oak of Moreh",
        "label": "Oak of Moreh",
        "labelOffset": [1.05, 1.2],
        "labelAnchor": "left",
        "featureType": "Biblical landmark",
        "status": "associated",
        "confidence": "Associated with Shechem",
        "confidenceScore": 953,
        "modernName": "Tell Balatah area",
        "references": ["Genesis 12:6", "Deuteronomy 11:30"],
        "description": "The oak associated with Abram's arrival near Shechem.",
        "sourceUrl": "https://www.openbible.info/geo/ancient/a38ad9f/moreh-1"
      },
      "geometry": { "type": "Point", "coordinates": [35.281944, 32.213611] }
    },
    {
      "type": "Feature",
      "properties": {
        "id": "bethel",
        "kind": "place",
        "name": "Bethel",
        "label": "Bethel",
        "labelOffset": [-0.85, 0],
        "labelAnchor": "right",
        "featureType": "Settlement",
        "status": "identified",
        "confidence": "Strong candidate",
        "confidenceScore": 716,
        "modernName": "Beitin",
        "references": ["Genesis 12:8", "Genesis 13:3", "Genesis 28:19", "Genesis 35:1"],
        "description": "A central hill-country settlement closely tied to Abraham, Jacob, and Israel's worship.",
        "sourceUrl": "https://www.openbible.info/geo/ancient/a64f355/bethel-1"
      },
      "geometry": { "type": "Point", "coordinates": [35.241389, 31.922778] }
    },
    {
      "type": "Feature",
      "properties": {
        "id": "ai",
        "kind": "place",
        "name": "Ai",
        "label": "Ai",
        "labelOffset": [0.85, 0],
        "labelAnchor": "left",
        "featureType": "Settlement",
        "status": "identified",
        "confidence": "Leading candidate",
        "confidenceScore": 522,
        "modernName": "Et Tell",
        "references": ["Genesis 12:8", "Genesis 13:3", "Joshua 7:2", "Joshua 8:1"],
        "description": "A hill-country settlement east of Bethel, prominent in Abraham's journey and Joshua's campaign.",
        "sourceUrl": "https://www.openbible.info/geo/ancient/a7e13e1/ai-1"
      },
      "geometry": { "type": "Point", "coordinates": [35.261111, 31.916944] }
    },
    {
      "type": "Feature",
      "properties": {
        "id": "hebron",
        "kind": "place",
        "name": "Hebron",
        "label": "Hebron",
        "labelOffset": [-1.25, -0.2],
        "labelAnchor": "right",
        "featureType": "Settlement",
        "status": "confirmed",
        "confidence": "High confidence",
        "confidenceScore": 1000,
        "modernName": "Tel Rumeida",
        "references": ["Genesis 13:18", "Genesis 23:2", "Genesis 23:19", "Genesis 35:27"],
        "description": "A major hill-country settlement associated with Abraham, Sarah, and the patriarchal family.",
        "sourceUrl": "https://www.openbible.info/geo/ancient/a85151a/hebron"
      },
      "geometry": { "type": "Point", "coordinates": [35.10222, 31.525087] }
    },
    {
      "type": "Feature",
      "properties": {
        "id": "oak-of-mamre",
        "kind": "place",
        "name": "Oak of Mamre",
        "label": "Oak of Mamre",
        "labelOffset": [1.05, 0.7],
        "labelAnchor": "left",
        "featureType": "Biblical landmark",
        "status": "identified",
        "confidence": "Leading candidate",
        "confidenceScore": 667,
        "modernName": "Ramat el Khalil",
        "references": ["Genesis 13:18", "Genesis 18:1", "Genesis 23:17", "Genesis 25:9"],
        "description": "The place near Hebron where Abraham lived and welcomed three visitors.",
        "sourceUrl": "https://www.openbible.info/geo/ancient/aeb9e97/mamre"
      },
      "geometry": { "type": "Point", "coordinates": [35.105336, 31.556536] }
    },
    {
      "type": "Feature",
      "properties": {
        "id": "sodom",
        "kind": "place",
        "name": "Sodom",
        "label": "Sodom\nuncertain",
        "labelOffset": [-1.1, -0.4],
        "labelAnchor": "right",
        "featureType": "Uncertain identification",
        "status": "uncertain",
        "confidence": "Several competing proposals",
        "confidenceScore": 386,
        "modernName": "No settled modern identification",
        "references": ["Genesis 10:19", "Genesis 13:10", "Genesis 14:2", "Genesis 19:24"],
        "description": "A city of the plain remembered in Genesis; its precise location remains uncertain.",
        "sourceUrl": "https://www.openbible.info/geo/ancient/a0aa664/sodom"
      },
      "geometry": { "type": "Point", "coordinates": [35.449223, 31.20849] }
    },
    {
      "type": "Feature",
      "properties": {
        "id": "gomorrah",
        "kind": "place",
        "name": "Gomorrah",
        "label": "Gomorrah\nuncertain",
        "labelOffset": [1.15, 1.3],
        "labelAnchor": "left",
        "featureType": "Uncertain identification",
        "status": "uncertain",
        "confidence": "Several competing proposals",
        "confidenceScore": 364,
        "modernName": "No settled modern identification",
        "references": ["Genesis 10:19", "Genesis 13:10", "Genesis 14:2", "Genesis 19:24"],
        "description": "A city of the plain remembered in Genesis; its precise location remains uncertain.",
        "sourceUrl": "https://www.openbible.info/geo/ancient/aa572e2/gomorrah"
      },
      "geometry": { "type": "Point", "coordinates": [35.462, 31.205] }
    }
  ]
}
